"ISO_3166_1","ISO_3166_2","ISO_3166_3","ISO_Official","FIPS_GEC","STANAG","M49","NUTS","geonameId","continentcode","regioncode","interregioncode","subregioncode","currency","independent","sovstatus","ISO_3166_3.sov","NAME.EN","CONTINENT.EN","REGION.EN","INTERREGION.EN","SUBREGION.EN","CAPITAL.EN","NAME.ES","CONTINENT.ES","REGION.ES","INTERREGION.ES","SUBREGION.ES","CAPITAL.ES","pop","area_km2","Developed"
"4","AF","AFG",TRUE,"AF","AFG","004","","1149361","AS","142","","034","AFN","TRUE","","","Afghanistan","Asia","Asia","","Southern Asia","Kabul","Afganistán","Asia","Asia","","Asia meridional","Kabul","29121286","647500.0","Developing"
"248","AX","ALA",TRUE,"","","248","","661882","EU","150","","154","EUR","FALSE","Part of FI","FIN","Åland Islands","Europe","Europe","","Northern Europe","Mariehamn","Islas Åland","Europa","Europa","","Europa septentrional","Mariehamn","26711","1580.0","Developed"
"8","AL","ALB",TRUE,"AL","ALB","008","AL","783754","EU","150","","039","ALL","TRUE","","","Albania","Europe","Europe","","Southern Europe","Tirana","Albania","Europa","Europa","","Europa meridional","Tirana","2986952","28748.0","Developed"
"12","DZ","DZA",TRUE,"AG","DZA","012","","2589581","AF","002","","015","DZD","TRUE","","","Algeria","Africa","Africa","","Northern Africa","Algiers","Argelia","África","África","","África septentrional","Argel","34586184","2381740.0","Developing"
"16","AS","ASM",TRUE,"AQ","ASM","016","","5880801","OC","009","","061","USD","FALSE","Territory of US","USA","American Samoa","Oceania","Oceania","","Polynesia","Pago Pago","Samoa Americana","Oceanía","Oceanía","","Polinesia","Pago Pago","57881","199.0","Developing"
"20","AD","AND",TRUE,"AN","AND","020","","3041565","EU","150","","039","EUR","TRUE","","","Andorra","Europe","Europe","","Southern Europe","Andorra la Vella","Andorra","Europa","Europa","","Europa meridional","Andorra la Vella","84000","468.0","Developed"
"24","AO","AGO",TRUE,"AO","AGO","024","","3351879","AF","002","017","202","AOA","TRUE","","","Angola","Africa","Africa","Middle Africa","Sub-Saharan Africa","Luanda","Angola","África","África","África central","África subsahariana","Luanda","13068161","1246700.0","Developing"
"660","AI","AIA",TRUE,"AV","AIA","660","","3573511","NA","019","029","419","XCD","FALSE","Territory of GB","GBR","Anguilla","North America","Americas","Caribbean","Latin America","The Valley","Anguila","Norteamérica","América","Caribe","Latinoamérica","El Valle","13254","102.0","Developing"
"10","AQ","ATA",TRUE,"AY","ATA","010","","6697173","AN","","","","","FALSE","International","","Antarctica","Antarctica","","","","","Antártida","Antártida","","","","","0","1.4E7",""
"28","AG","ATG",TRUE,"AC","ATG","028","","3576396","NA","019","029","419","XCD","TRUE","","","Antigua & Barbuda","North America","Americas","Caribbean","Latin America","St John's","Antigua y Barbuda","Norteamérica","América","Caribe","Latinoamérica","Saint John's","86754","443.0","Developing"
"32","AR","ARG",TRUE,"AR","ARG","032","","3865483","SA","019","005","419","ARS","TRUE","","","Argentina","South America","Americas","South America","Latin America","Buenos Aires","Argentina","Sudamérica","América","Sudamérica","Latinoamérica","Buenos Aires","41343201","2766890.0","Developing"
"51","AM","ARM",TRUE,"AM","ARM","051","","174982","AS","142","","145","AMD","TRUE","","","Armenia","Asia","Asia","","Western Asia","Yerevan","Armenia","Asia","Asia","","Asia occidental","Ereván","2968000","29800.0","Developing"
"533","AW","ABW",TRUE,"AA","ABW","533","","3577279","NA","019","029","419","AWG","FALSE","Part of NL","NLD","Aruba","North America","Americas","Caribbean","Latin America","Oranjestad","Aruba","Norteamérica","América","Caribe","Latinoamérica","Oranjestad","71566","193.0","Developing"
"36","AU","AUS",TRUE,"AS","AUS","036","","2077456","OC","009","","053","AUD","TRUE","","","Australia","Oceania","Oceania","","Australasia","Canberra","Australia","Oceanía","Oceanía","","Australasia","Canberra","21515754","7686850.0","Developed"
"40","AT","AUT",TRUE,"AU","AUT","040","AT","2782113","EU","150","","155","EUR","TRUE","","","Austria","Europe","Europe","","Western Europe","Vienna","Austria","Europa","Europa","","Europa occidental","Viena","8205000","83858.0","Developed"
"31","AZ","AZE",TRUE,"AJ","AZE","031","","587116","AS","142","","145","AZN","TRUE","","","Azerbaijan","Asia","Asia","","Western Asia","Baku","Azerbaiyán","Asia","Asia","","Asia occidental","Bakú","8303512","86600.0","Developing"
"44","BS","BHS",TRUE,"BF","BHS","044","","3572887","NA","019","029","419","BSD","TRUE","","","Bahamas","North America","Americas","Caribbean","Latin America","Nassau","Bahamas","Norteamérica","América","Caribe","Latinoamérica","Nasáu","301790","13940.0","Developing"
"48","BH","BHR",TRUE,"BA","BHR","048","","290291","AS","142","","145","BHD","TRUE","","","Bahrain","Asia","Asia","","Western Asia","Manama","Baréin","Asia","Asia","","Asia occidental","Manama","738004","665.0","Developing"
"50","BD","BGD",TRUE,"BG","BGD","050","","1210997","AS","142","","034","BDT","TRUE","","","Bangladesh","Asia","Asia","","Southern Asia","Dhaka","Bangladés","Asia","Asia","","Asia meridional","Daca","156118464","144000.0","Developing"
"52","BB","BRB",TRUE,"BB","BRB","052","","3374084","NA","019","029","419","BBD","TRUE","","","Barbados","North America","Americas","Caribbean","Latin America","Bridgetown","Barbados","Norteamérica","América","Caribe","Latinoamérica","Bridgetown","285653","431.0","Developing"
"112","BY","BLR",TRUE,"BO","BLR","112","","630336","EU","150","","151","BYN","TRUE","","","Belarus","Europe","Europe","","Eastern Europe","Minsk","Bielorrusia","Europa","Europa","","Europa oriental","Minsk","9685000","207600.0","Developed"
"56","BE","BEL",TRUE,"BE","BEL","056","BE","2802361","EU","150","","155","EUR","TRUE","","","Belgium","Europe","Europe","","Western Europe","Brussels","Bélgica","Europa","Europa","","Europa occidental","Bruselas","10403000","30510.0","Developed"
"84","BZ","BLZ",TRUE,"BH","BLZ","084","","3582678","NA","019","013","419","BZD","TRUE","","","Belize","North America","Americas","Central America","Latin America","Belmopan","Belice","Norteamérica","América","Centroamérica","Latinoamérica","Belmopán","314522","22966.0","Developing"
"204","BJ","BEN",TRUE,"BN","BEN","204","","2395170","AF","002","011","202","XOF","TRUE","","","Benin","Africa","Africa","Western Africa","Sub-Saharan Africa","Porto-Novo","Benín","África","África","África occidental","África subsahariana","Porto Novo","9056010","112620.0","Developing"
"60","BM","BMU",TRUE,"BD","BMU","060","","3573345","NA","019","","021","BMD","FALSE","Territory of GB","GBR","Bermuda","North America","Americas","","Northern America","Hamilton","Bermudas","Norteamérica","América","","Norteamérica","Hamilton","65365","53.0","Developed"
"64","BT","BTN",TRUE,"BT","BTN","064","","1252634","AS","142","","034","BTN","TRUE","","","Bhutan","Asia","Asia","","Southern Asia","Thimphu","Bután","Asia","Asia","","Asia meridional","Timbu","699847","47000.0","Developing"
"68","BO","BOL",TRUE,"BL","BOL","068","","3923057","SA","019","005","419","BOB","TRUE","","","Bolivia","South America","Americas","South America","Latin America","Sucre","Bolivia","Sudamérica","América","Sudamérica","Latinoamérica","Sucre","9947418","1098580.0","Developing"
"535","BQ","BES",TRUE,"","","535","","7626844","NA","019","029","419","USD","FALSE","Part of NL","NLD","Caribbean Netherlands","North America","Americas","Caribbean","Latin America","Kralendijk","Caribe neerlandés","Norteamérica","América","Caribe","Latinoamérica","Kralendijk","18012","328.0","Developing"
"70","BA","BIH",TRUE,"BK","BIH","070","","3277605","EU","150","","039","BAM","TRUE","","","Bosnia & Herzegovina","Europe","Europe","","Southern Europe","Sarajevo","Bosnia y Herzegovina","Europa","Europa","","Europa meridional","Sarajevo","4590000","51129.0","Developed"
"72","BW","BWA",TRUE,"BC","BWA","072","","933860","AF","002","018","202","BWP","TRUE","","","Botswana","Africa","Africa","Southern Africa","Sub-Saharan Africa","Gaborone","Botsuana","África","África","África meridional","África subsahariana","Gaborone","2029307","600370.0","Developing"
"74","BV","BVT",TRUE,"BV","BVT","074","","3371123","AN","019","005","419","NOK","FALSE","Territory of NO","NOR","Bouvet Island","Antarctica","Americas","South America","Latin America","","Isla Bouvet","Antártida","América","Sudamérica","Latinoamérica","","0","49.0","Developing"
"76","BR","BRA",TRUE,"BR","BRA","076","","3469034","SA","019","005","419","BRL","TRUE","","","Brazil","South America","Americas","South America","Latin America","Brasília","Brasil","Sudamérica","América","Sudamérica","Latinoamérica","Brasilia","201103330","8511965.0","Developing"
"86","IO","IOT",TRUE,"IO","IOT","086","","1282588","AS","002","014","202","USD","FALSE","Territory of GB","GBR","British Indian Ocean Territory","Asia","Africa","Eastern Africa","Sub-Saharan Africa","","Territorio Británico del Océano Índico","Asia","África","África oriental","África subsahariana","","4000","60.0","Developing"
"96","BN","BRN",TRUE,"BX","BRN","096","","1820814","AS","142","","035","BND","TRUE","","","Brunei","Asia","Asia","","Southeast Asia","Bandar Seri Begawan","Brunéi","Asia","Asia","","Sudeste asiático","Bandar Seri Begawan","395027","5770.0","Developing"
"100","BG","BGR",TRUE,"BU","BGR","100","BG","732800","EU","150","","151","BGN","TRUE","","","Bulgaria","Europe","Europe","","Eastern Europe","Sofia","Bulgaria","Europa","Europa","","Europa oriental","Sofía","7000039","110910.0","Developed"
"854","BF","BFA",TRUE,"UV","BFA","854","","2361809","AF","002","011","202","XOF","TRUE","","","Burkina Faso","Africa","Africa","Western Africa","Sub-Saharan Africa","Ouagadougou","Burkina Faso","África","África","África occidental","África subsahariana","Uagadugú","16241811","274200.0","Developing"
"108","BI","BDI",TRUE,"BY","BDI","108","","433561","AF","002","014","202","BIF","TRUE","","","Burundi","Africa","Africa","Eastern Africa","Sub-Saharan Africa","Gitega","Burundi","África","África","África oriental","África subsahariana","Gitega","9863117","27830.0","Developing"
"132","CV","CPV",TRUE,"CV","CPV","132","","3374766","AF","002","011","202","CVE","TRUE","","","Cape Verde","Africa","Africa","Western Africa","Sub-Saharan Africa","Praia","Cabo Verde","África","África","África occidental","África subsahariana","Praia","508659","4033.0","Developing"
"116","KH","KHM",TRUE,"CB","KHM","116","","1831722","AS","142","","035","KHR","TRUE","","","Cambodia","Asia","Asia","","Southeast Asia","Phnom Penh","Camboya","Asia","Asia","","Sudeste asiático","Nom Pen","14453680","181040.0","Developing"
"120","CM","CMR",TRUE,"CM","CMR","120","","2233387","AF","002","017","202","XAF","TRUE","","","Cameroon","Africa","Africa","Middle Africa","Sub-Saharan Africa","Yaoundé","Camerún","África","África","África central","África subsahariana","Yaundé","19294149","475440.0","Developing"
"124","CA","CAN",TRUE,"CA","CAN","124","","6251999","NA","019","","021","CAD","TRUE","","","Canada","North America","Americas","","Northern America","Ottawa","Canadá","Norteamérica","América","","Norteamérica","Ottawa","33679000","9984670.0","Developed"
"136","KY","CYM",TRUE,"CJ","CYM","136","","3580718","NA","019","029","419","KYD","FALSE","Territory of GB","GBR","Cayman Islands","North America","Americas","Caribbean","Latin America","George Town","Islas Caimán","Norteamérica","América","Caribe","Latinoamérica","George Town","44270","262.0","Developing"
"140","CF","CAF",TRUE,"CT","CAF","140","","239880","AF","002","017","202","XAF","TRUE","","","Central African Republic","Africa","Africa","Middle Africa","Sub-Saharan Africa","Bangui","República Centroafricana","África","África","África central","África subsahariana","Bangui","4844927","622984.0","Developing"
"148","TD","TCD",TRUE,"CD","TCD","148","","2434508","AF","002","017","202","XAF","TRUE","","","Chad","Africa","Africa","Middle Africa","Sub-Saharan Africa","N'Djamena","Chad","África","África","África central","África subsahariana","Yamena","10543464","1284000.0","Developing"
"152","CL","CHL",TRUE,"CI","CHL","152","","3895114","SA","019","005","419","CLP","TRUE","","","Chile","South America","Americas","South America","Latin America","Santiago","Chile","Sudamérica","América","Sudamérica","Latinoamérica","Santiago de Chile","16746491","756950.0","Developing"
"156","CN","CHN",TRUE,"CH","CHN","156","","1814991","AS","142","","030","CNY","TRUE","","","China","Asia","Asia","","Eastern Asia","Beijing","China","Asia","Asia","","Asia oriental","Pekín","1330044000","9596960.0","Developing"
"162","CX","CXR",TRUE,"KT","CXR","162","","2078138","OC","009","","053","AUD","FALSE","Territory of AU","AUS","Christmas Island","Oceania","Oceania","","Australasia","Flying Fish Cove","Isla de Navidad","Oceanía","Oceanía","","Australasia","Flying Fish Cove","1500","135.0","Developed"
"166","CC","CCK",TRUE,"CK","AUS","166","","1547376","AS","009","","053","AUD","FALSE","Territory of AU","AUS","Cocos (Keeling) Islands","Asia","Oceania","","Australasia","West Island","Islas Cocos","Asia","Oceanía","","Australasia","West Island","628","14.0","Developed"
"170","CO","COL",TRUE,"CO","COL","170","","3686110","SA","019","005","419","COP","TRUE","","","Colombia","South America","Americas","South America","Latin America","Bogotá","Colombia","Sudamérica","América","Sudamérica","Latinoamérica","Bogotá","47790000","1138910.0","Developing"
"174","KM","COM",TRUE,"CN","COM","174","","921929","AF","002","014","202","KMF","TRUE","","","Comoros","Africa","Africa","Eastern Africa","Sub-Saharan Africa","Moroni","Comoras","África","África","África oriental","África subsahariana","Moroni","773407","2170.0","Developing"
"178","CG","COG",TRUE,"CF","COG","178","","2260494","AF","002","017","202","XAF","TRUE","","","Congo - Brazzaville","Africa","Africa","Middle Africa","Sub-Saharan Africa","Brazzaville","Congo","África","África","África central","África subsahariana","Brazzaville","3039126","342000.0","Developing"
"180","CD","COD",TRUE,"CG","COD","180","","203312","AF","002","017","202","CDF","TRUE","","","Congo - Kinshasa","Africa","Africa","Middle Africa","Sub-Saharan Africa","Kinshasa","República Democrática del Congo","África","África","África central","África subsahariana","Kinsasa","70916439","2345410.0","Developing"
"184","CK","COK",TRUE,"CW","COK","184","","1899402","OC","009","","061","NZD","FALSE","Associated with NZ","NZL","Cook Islands","Oceania","Oceania","","Polynesia","Avarua","Islas Cook","Oceanía","Oceanía","","Polinesia","Avarua","21388","240.0","Developing"
"188","CR","CRI",TRUE,"CS","CRI","188","","3624060","NA","019","013","419","CRC","TRUE","","","Costa Rica","North America","Americas","Central America","Latin America","San José","Costa Rica","Norteamérica","América","Centroamérica","Latinoamérica","San José","4516220","51100.0","Developing"
"384","CI","CIV",TRUE,"IV","CIV","384","","2287781","AF","002","011","202","XOF","TRUE","","","Côte d’Ivoire","Africa","Africa","Western Africa","Sub-Saharan Africa","Yamoussoukro","Côte d’Ivoire","África","África","África occidental","África subsahariana","Yamusukro","21058798","322460.0","Developing"
"191","HR","HRV",TRUE,"HR","HRV","191","HR","3202326","EU","150","","039","HRK","TRUE","","","Croatia","Europe","Europe","","Southern Europe","Zagreb","Croacia","Europa","Europa","","Europa meridional","Zagreb","4284889","56542.0","Developed"
"192","CU","CUB",TRUE,"CU","CUB","192","","3562981","NA","019","029","419","CUP","TRUE","","","Cuba","North America","Americas","Caribbean","Latin America","Havana","Cuba","Norteamérica","América","Caribe","Latinoamérica","La Habana","11423000","110860.0","Developing"
"531","CW","CUW",TRUE,"UC","","531","","7626836","NA","019","029","419","ANG","FALSE","Part of NL","NLD","Curaçao","North America","Americas","Caribbean","Latin America","Willemstad","Curazao","Norteamérica","América","Caribe","Latinoamérica","Willemstad","141766","444.0","Developing"
"196","CY","CYP",TRUE,"CY","CYP","196","CY","146669","EU","142","","145","EUR","TRUE","","","Cyprus","Europe","Asia","","Western Asia","Nicosia","Chipre","Europa","Asia","","Asia occidental","Nicosia","1102677","9250.0","Developed"
"203","CZ","CZE",TRUE,"EZ","CZE","203","CZ","3077311","EU","150","","151","CZK","TRUE","","","Czechia","Europe","Europe","","Eastern Europe","Prague","Chequia","Europa","Europa","","Europa oriental","Praga","10476000","78866.0","Developed"
"208","DK","DNK",TRUE,"DA","DNK","208","DK","2623032","EU","150","","154","DKK","TRUE","","","Denmark","Europe","Europe","","Northern Europe","Copenhagen","Dinamarca","Europa","Europa","","Europa septentrional","Copenhague","5484000","43094.0","Developed"
"262","DJ","DJI",TRUE,"DJ","DJI","262","","223816","AF","002","014","202","DJF","TRUE","","","Djibouti","Africa","Africa","Eastern Africa","Sub-Saharan Africa","Djibouti","Yibuti","África","África","África oriental","África subsahariana","Yibuti","740528","23000.0","Developing"
"212","DM","DMA",TRUE,"DO","DMA","212","","3575830","NA","019","029","419","XCD","TRUE","","","Dominica","North America","Americas","Caribbean","Latin America","Roseau","Dominica","Norteamérica","América","Caribe","Latinoamérica","Roseau","72813","754.0","Developing"
"214","DO","DOM",TRUE,"DR","DOM","214","","3508796","NA","019","029","419","DOP","TRUE","","","Dominican Republic","North America","Americas","Caribbean","Latin America","Santo Domingo","República Dominicana","Norteamérica","América","Caribe","Latinoamérica","Santo Domingo","9823821","48730.0","Developing"
"218","EC","ECU",TRUE,"EC","ECU","218","","3658394","SA","019","005","419","USD","TRUE","","","Ecuador","South America","Americas","South America","Latin America","Quito","Ecuador","Sudamérica","América","Sudamérica","Latinoamérica","Quito","14790608","283560.0","Developing"
"818","EG","EGY",TRUE,"EG","EGY","818","","357994","AF","002","","015","EGP","TRUE","","","Egypt","Africa","Africa","","Northern Africa","Cairo","Egipto","África","África","","África septentrional","Cairo","80471869","1001450.0","Developing"
"222","SV","SLV",TRUE,"ES","SLV","222","","3585968","NA","019","013","419","USD","TRUE","","","El Salvador","North America","Americas","Central America","Latin America","San Salvador","El Salvador","Norteamérica","América","Centroamérica","Latinoamérica","San Salvador","6052064","21040.0","Developing"
"226","GQ","GNQ",TRUE,"EK","GNQ","226","","2309096","AF","002","017","202","XAF","TRUE","","","Equatorial Guinea","Africa","Africa","Middle Africa","Sub-Saharan Africa","Malabo","Guinea Ecuatorial","África","África","África central","África subsahariana","Ciudad de Malabo","1014999","28051.0","Developing"
"232","ER","ERI",TRUE,"ER","ERI","232","","338010","AF","002","014","202","ERN","TRUE","","","Eritrea","Africa","Africa","Eastern Africa","Sub-Saharan Africa","Asmara","Eritrea","África","África","África oriental","África subsahariana","Asmara","5792984","121320.0","Developing"
"233","EE","EST",TRUE,"EN","EST","233","EE","453733","EU","150","","154","EUR","TRUE","","","Estonia","Europe","Europe","","Northern Europe","Tallinn","Estonia","Europa","Europa","","Europa septentrional","Tallin","1291170","45226.0","Developed"
"748","SZ","SWZ",TRUE,"WZ","SWZ","748","","934841","AF","002","018","202","SZL","TRUE","","","Eswatini","Africa","Africa","Southern Africa","Sub-Saharan Africa","Mbabane","Esuatini","África","África","África meridional","África subsahariana","Mbabane","1354051","17363.0","Developing"
"231","ET","ETH",TRUE,"ET","ETH","231","","337996","AF","002","014","202","ETB","TRUE","","","Ethiopia","Africa","Africa","Eastern Africa","Sub-Saharan Africa","Addis Ababa","Etiopía","África","África","África oriental","África subsahariana","Addis Abeba","88013491","1127127.0","Developing"
"238","FK","FLK",TRUE,"FK","FLK","238","","3474414","SA","019","005","419","FKP","FALSE","Territory of GB","GBR","Falkland Islands","South America","Americas","South America","Latin America","Stanley","Islas Malvinas","Sudamérica","América","Sudamérica","Latinoamérica","Puerto Argentino","2638","12173.0","Developing"
"234","FO","FRO",TRUE,"FO","FRO","234","","2622320","EU","150","","154","DKK","FALSE","Part of DK","DNK","Faroe Islands","Europe","Europe","","Northern Europe","Tórshavn","Islas Feroe","Europa","Europa","","Europa septentrional","Tórshavn","48228","1399.0","Developed"
"242","FJ","FJI",TRUE,"FJ","FJI","242","","2205218","OC","009","","054","FJD","TRUE","","","Fiji","Oceania","Oceania","","Melanesia","Suva","Fiyi","Oceanía","Oceanía","","Melanesia","Suva","875983","18270.0","Developing"
"246","FI","FIN",TRUE,"FI","FIN","246","FI","660013","EU","150","","154","EUR","TRUE","","","Finland","Europe","Europe","","Northern Europe","Helsinki","Finlandia","Europa","Europa","","Europa septentrional","Helsinki","5244000","337030.0","Developed"
"250","FR","FRA",TRUE,"FR","FRA","250","FR","3017382","EU","150","","155","EUR","TRUE","","","France","Europe","Europe","","Western Europe","Paris","Francia","Europa","Europa","","Europa occidental","París","64768389","547030.0","Developed"
"254","GF","GUF",TRUE,"FG","GUF","254","","3381670","SA","019","005","419","EUR","FALSE","Part of FR","FRA","French Guiana","South America","Americas","South America","Latin America","Cayenne","Guayana Francesa","Sudamérica","América","Sudamérica","Latinoamérica","Cayena","195506","91000.0","Developing"
"258","PF","PYF",TRUE,"FP","PYF","258","","4030656","OC","009","","061","XPF","FALSE","Territory of FR","FRA","French Polynesia","Oceania","Oceania","","Polynesia","Papeete","Polinesia Francesa","Oceanía","Oceanía","","Polinesia","Papeete","270485","4167.0","Developing"
"260","TF","ATF",TRUE,"FS","ATF","260","","1546748","AN","002","014","202","EUR","FALSE","Territory of FR","FRA","French Southern Territories","Antarctica","Africa","Eastern Africa","Sub-Saharan Africa","Port-aux-Français","Territorios Australes Franceses","Antártida","África","África oriental","África subsahariana","Port-aux-Français","140","7829.0","Developing"
"266","GA","GAB",TRUE,"GB","GAB","266","","2400553","AF","002","017","202","XAF","TRUE","","","Gabon","Africa","Africa","Middle Africa","Sub-Saharan Africa","Libreville","Gabón","África","África","África central","África subsahariana","Libreville","1545255","267667.0","Developing"
"270","GM","GMB",TRUE,"GA","GMB","270","","2413451","AF","002","011","202","GMD","TRUE","","","Gambia","Africa","Africa","Western Africa","Sub-Saharan Africa","Banjul","Gambia","África","África","África occidental","África subsahariana","Banjul","1593256","11300.0","Developing"
"268","GE","GEO",TRUE,"GG","GEO","268","","614540","AS","142","","145","GEL","TRUE","","","Georgia","Asia","Asia","","Western Asia","Tbilisi","Georgia","Asia","Asia","","Asia occidental","Tiflis","4630000","69700.0","Developing"
"276","DE","DEU",TRUE,"GM","DEU","276","DE","2921044","EU","150","","155","EUR","TRUE","","","Germany","Europe","Europe","","Western Europe","Berlin","Alemania","Europa","Europa","","Europa occidental","Berlín","81802257","357021.0","Developed"
"288","GH","GHA",TRUE,"GH","GHA","288","","2300660","AF","002","011","202","GHS","TRUE","","","Ghana","Africa","Africa","Western Africa","Sub-Saharan Africa","Accra","Ghana","África","África","África occidental","África subsahariana","Accra","24339838","239460.0","Developing"
"292","GI","GIB",TRUE,"GI","GIB","292","","2411586","EU","150","","039","GIP","FALSE","Territory of GB","GBR","Gibraltar","Europe","Europe","","Southern Europe","Gibraltar","Gibraltar","Europa","Europa","","Europa meridional","Gibraltar","27884","6.5","Developed"
"300","GR","GRC",TRUE,"GR","GRC","300","EL","390903","EU","150","","039","EUR","TRUE","","","Greece","Europe","Europe","","Southern Europe","Athens","Grecia","Europa","Europa","","Europa meridional","Atenas","11000000","131940.0","Developed"
"304","GL","GRL",TRUE,"GL","GRL","304","","3425505","NA","019","","021","DKK","FALSE","Part of DK","DNK","Greenland","North America","Americas","","Northern America","Nuuk","Groenlandia","Norteamérica","América","","Norteamérica","Nuuk","56375","2166086.0","Developed"
"308","GD","GRD",TRUE,"GJ","GRD","308","","3580239","NA","019","029","419","XCD","TRUE","","","Grenada","North America","Americas","Caribbean","Latin America","St. George's","Granada","Norteamérica","América","Caribe","Latinoamérica","Saint George's","107818","344.0","Developing"
"312","GP","GLP",TRUE,"GP","GLP","312","","3579143","NA","019","029","419","EUR","FALSE","Part of FR","FRA","Guadeloupe","North America","Americas","Caribbean","Latin America","Basse-Terre","Guadalupe","Norteamérica","América","Caribe","Latinoamérica","Basse-Terre","443000","1780.0","Developing"
"316","GU","GUM",TRUE,"GQ","GUM","316","","4043988","OC","009","","057","USD","FALSE","Territory of US","USA","Guam","Oceania","Oceania","","Micronesian Region","Hagåtña","Guam","Oceanía","Oceanía","","Región de Micronesia","Agaña","159358","549.0","Developing"
"320","GT","GTM",TRUE,"GT","GTM","320","","3595528","NA","019","013","419","GTQ","TRUE","","","Guatemala","North America","Americas","Central America","Latin America","Guatemala City","Guatemala","Norteamérica","América","Centroamérica","Latinoamérica","Guate","13550440","108890.0","Developing"
"831","GG","GGY",TRUE,"GK","UK","831","","3042362","EU","150","830","154","GBP","FALSE","Crown dependency of GB","GBR","Guernsey","Europe","Europe","Channel Islands","Northern Europe","St Peter Port","Guernsey","Europa","Europa","Islas Anglonormandas","Europa septentrional","Saint Peter Port","65228","78.0","Developed"
"324","GN","GIN",TRUE,"GV","GIN","324","","2420477","AF","002","011","202","GNF","TRUE","","","Guinea","Africa","Africa","Western Africa","Sub-Saharan Africa","Conakry","Guinea","África","África","África occidental","África subsahariana","Conakry","10324025","245857.0","Developing"
"624","GW","GNB",TRUE,"PU","GNB","624","","2372248","AF","002","011","202","XOF","TRUE","","","Guinea-Bissau","Africa","Africa","Western Africa","Sub-Saharan Africa","Bissau","Guinea-Bisáu","África","África","África occidental","África subsahariana","Bissau","1565126","36120.0","Developing"
"328","GY","GUY",TRUE,"GY","GUY","328","","3378535","SA","019","005","419","GYD","TRUE","","","Guyana","South America","Americas","South America","Latin America","Georgetown","Guyana","Sudamérica","América","Sudamérica","Latinoamérica","Georgetown","748486","214970.0","Developing"
"332","HT","HTI",TRUE,"HA","HTI","332","","3723988","NA","019","029","419","HTG","TRUE","","","Haiti","North America","Americas","Caribbean","Latin America","Port-au-Prince","Haití","Norteamérica","América","Caribe","Latinoamérica","Puerto Príncipe","9648924","27750.0","Developing"
"334","HM","HMD",TRUE,"HM","HMD","334","","1547314","AN","009","","053","AUD","FALSE","Territory of AU","AUS","Heard & McDonald Islands","Antarctica","Oceania","","Australasia","","Islas Heard y McDonald","Antártida","Oceanía","","Australasia","","0","412.0","Developed"
"336","VA","VAT",TRUE,"VT","VAT","336","","3164670","EU","150","","039","EUR","TRUE","","","Vatican City","Europe","Europe","","Southern Europe","Vatican City","Ciudad del Vaticano","Europa","Europa","","Europa meridional","Vaticano","921","0.44","Developed"
"340","HN","HND",TRUE,"HO","HND","340","","3608932","NA","019","013","419","HNL","TRUE","","","Honduras","North America","Americas","Central America","Latin America","Tegucigalpa","Honduras","Norteamérica","América","Centroamérica","Latinoamérica","Tegucigalpa","7989415","112090.0","Developing"
"344","HK","HKG",TRUE,"HK","HKG","344","","1819730","AS","142","","030","HKD","FALSE","Part of CN","CHN","Hong Kong SAR China","Asia","Asia","","Eastern Asia","Hong Kong","RAE de Hong Kong (China)","Asia","Asia","","Asia oriental","Hong Kong","6898686","1092.0","Developing"
"348","HU","HUN",TRUE,"HU","HUN","348","HU","719819","EU","150","","151","HUF","TRUE","","","Hungary","Europe","Europe","","Eastern Europe","Budapest","Hungría","Europa","Europa","","Europa oriental","Budapest","9982000","93030.0","Developed"
"352","IS","ISL",TRUE,"IC","ISL","352","IS","2629691","EU","150","","154","ISK","TRUE","","","Iceland","Europe","Europe","","Northern Europe","Reykjavik","Islandia","Europa","Europa","","Europa septentrional","Reikiavik","308910","103000.0","Developed"
"356","IN","IND",TRUE,"IN","IND","356","","1269750","AS","142","","034","INR","TRUE","","","India","Asia","Asia","","Southern Asia","New Delhi","India","Asia","Asia","","Asia meridional","Nueva Delhi","1173108018","3287590.0","Developing"
"360","ID","IDN",TRUE,"ID","IDN","360","","1643084","AS","142","","035","IDR","TRUE","","","Indonesia","Asia","Asia","","Southeast Asia","Jakarta","Indonesia","Asia","Asia","","Sudeste asiático","Yakarta","242968342","1919440.0","Developing"
"364","IR","IRN",TRUE,"IR","IRN","364","","130758","AS","142","","034","IRR","TRUE","","","Iran","Asia","Asia","","Southern Asia","Tehran","Irán","Asia","Asia","","Asia meridional","Teherán","76923300","1648000.0","Developing"
"368","IQ","IRQ",TRUE,"IZ","IRQ","368","","99237","AS","142","","145","IQD","TRUE","","","Iraq","Asia","Asia","","Western Asia","Baghdad","Irak","Asia","Asia","","Asia occidental","Bagdad","29671605","437072.0","Developing"
"372","IE","IRL",TRUE,"EI","IRL","372","IE","2963597","EU","150","","154","EUR","TRUE","","","Ireland","Europe","Europe","","Northern Europe","Dublin","Irlanda","Europa","Europa","","Europa septentrional","Dublín","4622917","70280.0","Developed"
"833","IM","IMN",TRUE,"IM","UK","833","","3042225","EU","150","","154","GBP","FALSE","Crown dependency of GB","GBR","Isle of Man","Europe","Europe","","Northern Europe","Douglas","Isla de Man","Europa","Europa","","Europa septentrional","Douglas","75049","572.0","Developed"
"376","IL","ISR",TRUE,"IS","ISR","376","","294640","AS","142","","145","ILS","TRUE","","","Israel","Asia","Asia","","Western Asia","","Israel","Asia","Asia","","Asia occidental","","7353985","20770.0","Developed"
"380","IT","ITA",TRUE,"IT","ITA","380","IT","3175395","EU","150","","039","EUR","TRUE","","","Italy","Europe","Europe","","Southern Europe","Rome","Italia","Europa","Europa","","Europa meridional","Roma","60340328","301230.0","Developed"
"388","JM","JAM",TRUE,"JM","JAM","388","","3489940","NA","019","029","419","JMD","TRUE","","","Jamaica","North America","Americas","Caribbean","Latin America","Kingston","Jamaica","Norteamérica","América","Caribe","Latinoamérica","Kingston","2847232","10991.0","Developing"
"392","JP","JPN",TRUE,"JA","JPN","392","","1861060","AS","142","","030","JPY","TRUE","","","Japan","Asia","Asia","","Eastern Asia","Tokyo","Japón","Asia","Asia","","Asia oriental","Tokio","127288000","377835.0","Developed"
"832","JE","JEY",TRUE,"JE","UK","832","","3042142","EU","150","830","154","GBP","FALSE","Crown dependency of GB","GBR","Jersey","Europe","Europe","Channel Islands","Northern Europe","Saint Helier","Jersey","Europa","Europa","Islas Anglonormandas","Europa septentrional","Saint Helier","90812","116.0","Developed"
"400","JO","JOR",TRUE,"JO","JOR","400","","248816","AS","142","","145","JOD","TRUE","","","Jordan","Asia","Asia","","Western Asia","Amman","Jordania","Asia","Asia","","Asia occidental","Ammán","6407085","92300.0","Developing"
"398","KZ","KAZ",TRUE,"KZ","KAZ","398","","1522867","AS","142","","143","KZT","TRUE","","","Kazakhstan","Asia","Asia","","Central Asia","Nur-Sultan","Kazajistán","Asia","Asia","","Asia central","Nur-Sultán","15340000","2717300.0","Developing"
"404","KE","KEN",TRUE,"KE","KEN","404","","192950","AF","002","014","202","KES","TRUE","","","Kenya","Africa","Africa","Eastern Africa","Sub-Saharan Africa","Nairobi","Kenia","África","África","África oriental","África subsahariana","Nairobi","40046566","582650.0","Developing"
"296","KI","KIR",TRUE,"KR","KIR","296","","4030945","OC","009","","057","AUD","TRUE","","","Kiribati","Oceania","Oceania","","Micronesian Region","Tarawa","Kiribati","Oceanía","Oceanía","","Región de Micronesia","Tarawa","92533","811.0","Developing"
"408","KP","PRK",TRUE,"KN","PRK","408","","1873107","AS","142","","030","KPW","TRUE","","","North Korea","Asia","Asia","","Eastern Asia","Pyongyang","Corea del Norte","Asia","Asia","","Asia oriental","Pionyang","22912177","120540.0","Developing"
"410","KR","KOR",TRUE,"KS","KOR","410","","1835841","AS","142","","030","KRW","TRUE","","","South Korea","Asia","Asia","","Eastern Asia","Seoul","Corea del Sur","Asia","Asia","","Asia oriental","Seúl","48422644","98480.0","Developing"
"414","KW","KWT",TRUE,"KU","KWT","414","","285570","AS","142","","145","KWD","TRUE","","","Kuwait","Asia","Asia","","Western Asia","Kuwait City","Kuwait","Asia","Asia","","Asia occidental","Ciudad de Kuwait","2789132","17820.0","Developing"
"417","KG","KGZ",TRUE,"KG","KGZ","417","","1527747","AS","142","","143","KGS","TRUE","","","Kyrgyzstan","Asia","Asia","","Central Asia","Bishkek","Kirguistán","Asia","Asia","","Asia central","Biskek","5776500","198500.0","Developing"
"418","LA","LAO",TRUE,"LA","LAO","418","","1655842","AS","142","","035","LAK","TRUE","","","Laos","Asia","Asia","","Southeast Asia","Vientiane","Laos","Asia","Asia","","Sudeste asiático","Vientiane","6368162","236800.0","Developing"
"428","LV","LVA",TRUE,"LG","LVA","428","LV","458258","EU","150","","154","EUR","TRUE","","","Latvia","Europe","Europe","","Northern Europe","Riga","Letonia","Europa","Europa","","Europa septentrional","Riga","2217969","64589.0","Developed"
"422","LB","LBN",TRUE,"LE","LBN","422","","272103","AS","142","","145","LBP","TRUE","","","Lebanon","Asia","Asia","","Western Asia","Beirut","Líbano","Asia","Asia","","Asia occidental","Beirut","4125247","10400.0","Developing"
"426","LS","LSO",TRUE,"LT","LSO","426","","932692","AF","002","018","202","LSL","TRUE","","","Lesotho","Africa","Africa","Southern Africa","Sub-Saharan Africa","Maseru","Lesoto","África","África","África meridional","África subsahariana","Maseru","1919552","30355.0","Developing"
"430","LR","LBR",TRUE,"LI","LBR","430","","2275384","AF","002","011","202","LRD","TRUE","","","Liberia","Africa","Africa","Western Africa","Sub-Saharan Africa","Monrovia","Liberia","África","África","África occidental","África subsahariana","Monrovia","3685076","111370.0","Developing"
"434","LY","LBY",TRUE,"LY","LBY","434","","2215636","AF","002","","015","LYD","TRUE","","","Libya","Africa","Africa","","Northern Africa","Tripoli","Libia","África","África","","África septentrional","Trípoli","6461454","1759540.0","Developing"
"438","LI","LIE",TRUE,"LS","LIE","438","LI","3042058","EU","150","","155","CHF","TRUE","","","Liechtenstein","Europe","Europe","","Western Europe","Vaduz","Liechtenstein","Europa","Europa","","Europa occidental","Vaduz","35000","160.0","Developed"
"440","LT","LTU",TRUE,"LH","LTU","440","LT","597427","EU","150","","154","EUR","TRUE","","","Lithuania","Europe","Europe","","Northern Europe","Vilnius","Lituania","Europa","Europa","","Europa septentrional","Vilna","2944459","65200.0","Developed"
"442","LU","LUX",TRUE,"LU","LUX","442","LU","2960313","EU","150","","155","EUR","TRUE","","","Luxembourg","Europe","Europe","","Western Europe","Luxembourg","Luxemburgo","Europa","Europa","","Europa occidental","Luxemburgo","497538","2586.0","Developed"
"446","MO","MAC",TRUE,"MC","MAC","446","","1821275","AS","142","","030","MOP","FALSE","Part of CN","CHN","Macao SAR China","Asia","Asia","","Eastern Asia","Macao","RAE de Macao (China)","Asia","Asia","","Asia oriental","Macao","449198","254.0","Developing"
"450","MG","MDG",TRUE,"MA","MDG","450","","1062947","AF","002","014","202","MGA","TRUE","","","Madagascar","Africa","Africa","Eastern Africa","Sub-Saharan Africa","Antananarivo","Madagascar","África","África","África oriental","África subsahariana","Antananarivo","21281844","587040.0","Developing"
"454","MW","MWI",TRUE,"MI","MWI","454","","927384","AF","002","014","202","MWK","TRUE","","","Malawi","Africa","Africa","Eastern Africa","Sub-Saharan Africa","Lilongwe","Malaui","África","África","África oriental","África subsahariana","Lilongwe","17563749","118480.0","Developing"
"458","MY","MYS",TRUE,"MY","MYS","458","","1733045","AS","142","","035","MYR","TRUE","","","Malaysia","Asia","Asia","","Southeast Asia","Kuala Lumpur","Malasia","Asia","Asia","","Sudeste asiático","Kuala Lumpur","28274729","329750.0","Developing"
"462","MV","MDV",TRUE,"MV","MDV","462","","1282028","AS","142","","034","MVR","TRUE","","","Maldives","Asia","Asia","","Southern Asia","Malé","Maldivas","Asia","Asia","","Asia meridional","Malé","395650","300.0","Developing"
"466","ML","MLI",TRUE,"ML","MLI","466","","2453866","AF","002","011","202","XOF","TRUE","","","Mali","Africa","Africa","Western Africa","Sub-Saharan Africa","Bamako","Mali","África","África","África occidental","África subsahariana","Bamako","13796354","1240000.0","Developing"
"470","MT","MLT",TRUE,"MT","MLT","470","MT","2562770","EU","150","","039","EUR","TRUE","","","Malta","Europe","Europe","","Southern Europe","Valletta","Malta","Europa","Europa","","Europa meridional","Valletta","403000","316.0","Developed"
"584","MH","MHL",TRUE,"RM","MHL","584","","2080185","OC","009","","057","USD","TRUE","","","Marshall Islands","Oceania","Oceania","","Micronesian Region","Majuro","Islas Marshall","Oceanía","Oceanía","","Región de Micronesia","Majuro","65859","181.3","Developing"
"474","MQ","MTQ",TRUE,"MB","MTQ","474","","3570311","NA","019","029","419","EUR","FALSE","Part of FR","FRA","Martinique","North America","Americas","Caribbean","Latin America","Fort-de-France","Martinica","Norteamérica","América","Caribe","Latinoamérica","Fort-de-France","432900","1100.0","Developing"
"478","MR","MRT",TRUE,"MR","MRT","478","","2378080","AF","002","011","202","MRU","TRUE","","","Mauritania","Africa","Africa","Western Africa","Sub-Saharan Africa","Nouakchott","Mauritania","África","África","África occidental","África subsahariana","Nuakchot","3205060","1030700.0","Developing"
"480","MU","MUS",TRUE,"MP","MUS","480","","934292","AF","002","014","202","MUR","TRUE","","","Mauritius","Africa","Africa","Eastern Africa","Sub-Saharan Africa","Port Louis","Mauricio","África","África","África oriental","África subsahariana","Puerto Louis","1294104","2040.0","Developing"
"175","YT","MYT",TRUE,"MF","FRA","175","","1024031","AF","002","014","202","EUR","FALSE","Part of FR","FRA","Mayotte","Africa","Africa","Eastern Africa","Sub-Saharan Africa","Mamoudzou","Mayotte","África","África","África oriental","África subsahariana","Mamoudzou","159042","374.0","Developing"
"484","MX","MEX",TRUE,"MX","MEX","484","","3996063","NA","019","013","419","MXN","TRUE","","","Mexico","North America","Americas","Central America","Latin America","Mexico City","México","Norteamérica","América","Centroamérica","Latinoamérica","Ciudad de México","112468855","1972550.0","Developing"
"583","FM","FSM",TRUE,"FM","FSM","583","","2081918","OC","009","","057","USD","TRUE","","","Micronesia","Oceania","Oceania","","Micronesian Region","Palikir","Micronesia","Oceanía","Oceanía","","Región de Micronesia","Palikir","107708","702.0","Developing"
"498","MD","MDA",TRUE,"MD","MDA","498","","617790","EU","150","","151","MDL","TRUE","","","Moldova","Europe","Europe","","Eastern Europe","Chișinău","Moldavia","Europa","Europa","","Europa oriental","Chișinău","4324000","33843.0","Developed"
"492","MC","MCO",TRUE,"MN","MCO","492","","2993457","EU","150","","155","EUR","TRUE","","","Monaco","Europe","Europe","","Western Europe","Monaco","Mónaco","Europa","Europa","","Europa occidental","Mónaco","32965","1.95","Developed"
"496","MN","MNG",TRUE,"MG","MNG","496","","2029969","AS","142","","030","MNT","TRUE","","","Mongolia","Asia","Asia","","Eastern Asia","Ulaanbaatar","Mongolia","Asia","Asia","","Asia oriental","Ulán Bator","3086918","1565000.0","Developing"
"499","ME","MNE",TRUE,"MJ","MNE","499","ME","3194884","EU","150","","039","EUR","TRUE","","","Montenegro","Europe","Europe","","Southern Europe","Podgorica","Montenegro","Europa","Europa","","Europa meridional","Podgorica","666730","14026.0","Developed"
"500","MS","MSR",TRUE,"MH","MSR","500","","3578097","NA","019","029","419","XCD","FALSE","Territory of GB","GBR","Montserrat","North America","Americas","Caribbean","Latin America","Plymouth","Montserrat","Norteamérica","América","Caribe","Latinoamérica","Plymouth","9341","102.0","Developing"
"504","MA","MAR",TRUE,"MO","MAR","504","","2542007","AF","002","","015","MAD","TRUE","","","Morocco","Africa","Africa","","Northern Africa","Rabat","Marruecos","África","África","","África septentrional","Rabat","33848242","446550.0","Developing"
"508","MZ","MOZ",TRUE,"MZ","MOZ","508","","1036973","AF","002","014","202","MZN","TRUE","","","Mozambique","Africa","Africa","Eastern Africa","Sub-Saharan Africa","Maputo","Mozambique","África","África","África oriental","África subsahariana","Maputo","22061451","801590.0","Developing"
"104","MM","MMR",TRUE,"BM","MMR","104","","1327865","AS","142","","035","MMK","TRUE","","","Myanmar (Burma)","Asia","Asia","","Southeast Asia","Nay Pyi Taw","Myanmar (Birmania)","Asia","Asia","","Sudeste asiático","Nay Pyi Taw","53414374","678500.0","Developing"
"516","NA","NAM",TRUE,"WA","NAM","516","","3355338","AF","002","018","202","NAD","TRUE","","","Namibia","Africa","Africa","Southern Africa","Sub-Saharan Africa","Windhoek","Namibia","África","África","África meridional","África subsahariana","Windhoek","2128471","825418.0","Developing"
"520","NR","NRU",TRUE,"NR","NRU","520","","2110425","OC","009","","057","AUD","TRUE","","","Nauru","Oceania","Oceania","","Micronesian Region","Yaren District","Nauru","Oceanía","Oceanía","","Región de Micronesia","Yaren","10065","21.0","Developing"
"524","NP","NPL",TRUE,"NP","NPL","524","","1282988","AS","142","","034","NPR","TRUE","","","Nepal","Asia","Asia","","Southern Asia","Kathmandu","Nepal","Asia","Asia","","Asia meridional","Katmandú","28951852","140800.0","Developing"
"528","NL","NLD",TRUE,"NL","NLD","528","NL","2750405","EU","150","","155","EUR","TRUE","","","Netherlands","Europe","Europe","","Western Europe","Amsterdam","Países Bajos","Europa","Europa","","Europa occidental","Ámsterdam","16645000","41526.0","Developed"
"540","NC","NCL",TRUE,"NC","NCL","540","","2139685","OC","009","","054","XPF","FALSE","Territory of FR","FRA","New Caledonia","Oceania","Oceania","","Melanesia","Noumea","Nueva Caledonia","Oceanía","Oceanía","","Melanesia","Numea","216494","19060.0","Developing"
"554","NZ","NZL",TRUE,"NZ","NZL","554","","2186224","OC","009","","053","NZD","TRUE","","","New Zealand","Oceania","Oceania","","Australasia","Wellington","Nueva Zelanda","Oceanía","Oceanía","","Australasia","Wellington","4252277","268680.0","Developed"
"558","NI","NIC",TRUE,"NU","NIC","558","","3617476","NA","019","013","419","NIO","TRUE","","","Nicaragua","North America","Americas","Central America","Latin America","Managua","Nicaragua","Norteamérica","América","Centroamérica","Latinoamérica","Managua","5995928","129494.0","Developing"
"562","NE","NER",TRUE,"NG","NER","562","","2440476","AF","002","011","202","XOF","TRUE","","","Niger","Africa","Africa","Western Africa","Sub-Saharan Africa","Niamey","Níger","África","África","África occidental","África subsahariana","Niamey","15878271","1267000.0","Developing"
"566","NG","NGA",TRUE,"NI","NGA","566","","2328926","AF","002","011","202","NGN","TRUE","","","Nigeria","Africa","Africa","Western Africa","Sub-Saharan Africa","Abuja","Nigeria","África","África","África occidental","África subsahariana","Abuja","154000000","923768.0","Developing"
"570","NU","NIU",TRUE,"NE","NIU","570","","4036232","OC","009","","061","NZD","FALSE","Associated with NZ","NZL","Niue","Oceania","Oceania","","Polynesia","Alofi","Niue","Oceanía","Oceanía","","Polinesia","Alofi","2166","260.0","Developing"
"574","NF","NFK",TRUE,"NF","NFK","574","","2155115","OC","009","","053","AUD","FALSE","Territory of AU","AUS","Norfolk Island","Oceania","Oceania","","Australasia","Kingston","Isla Norfolk","Oceanía","Oceanía","","Australasia","Kingston","1828","34.6","Developed"
"807","MK","MKD",TRUE,"MK","FYR","807","MK","718075","EU","150","","039","MKD","TRUE","","","North Macedonia","Europe","Europe","","Southern Europe","Skopje","Macedonia del Norte","Europa","Europa","","Europa meridional","Skopje","2062294","25333.0","Developed"
"580","MP","MNP",TRUE,"CQ","MNP","580","","4041468","OC","009","","057","USD","FALSE","Commonwealth of US","USA","Northern Mariana Islands","Oceania","Oceania","","Micronesian Region","Saipan","Islas Marianas del Norte","Oceanía","Oceanía","","Región de Micronesia","Saipan","53883","477.0","Developing"
"578","NO","NOR",TRUE,"NO","NOR","578","NO","3144096","EU","150","","154","NOK","TRUE","","","Norway","Europe","Europe","","Northern Europe","Oslo","Noruega","Europa","Europa","","Europa septentrional","Oslo","5009150","324220.0","Developed"
"512","OM","OMN",TRUE,"MU","OMN","512","","286963","AS","142","","145","OMR","TRUE","","","Oman","Asia","Asia","","Western Asia","Muscat","Omán","Asia","Asia","","Asia occidental","Mascate","2967717","212460.0","Developing"
"586","PK","PAK",TRUE,"PK","PAK","586","","1168579","AS","142","","034","PKR","TRUE","","","Pakistan","Asia","Asia","","Southern Asia","Islamabad","Pakistán","Asia","Asia","","Asia meridional","Islamabad","184404791","803940.0","Developing"
"585","PW","PLW",TRUE,"PS","PLW","585","","1559582","OC","009","","057","USD","TRUE","","","Palau","Oceania","Oceania","","Micronesian Region","Ngerulmud","Palaos","Oceanía","Oceanía","","Región de Micronesia","Ngerulmud","19907","458.0","Developing"
"275","PS","PSE",TRUE,"WE","PSE","275","","6254930","AS","142","","145","ILS","FALSE","In contention","","Palestinian Territories","Asia","Asia","","Western Asia","","Territorios Palestinos","Asia","Asia","","Asia occidental","","3800000","5970.0","Developing"
"591","PA","PAN",TRUE,"PM","PAN","591","","3703430","NA","019","013","419","PAB","TRUE","","","Panama","North America","Americas","Central America","Latin America","Panama City","Panamá","Norteamérica","América","Centroamérica","Latinoamérica","Panamá","3410676","78200.0","Developing"
"598","PG","PNG",TRUE,"PP","PNG","598","","2088628","OC","009","","054","PGK","TRUE","","","Papua New Guinea","Oceania","Oceania","","Melanesia","Port Moresby","Papúa Nueva Guinea","Oceanía","Oceanía","","Melanesia","Puerto Moresby","6064515","462840.0","Developing"
"600","PY","PRY",TRUE,"PA","PRY","600","","3437598","SA","019","005","419","PYG","TRUE","","","Paraguay","South America","Americas","South America","Latin America","Asunción","Paraguay","Sudamérica","América","Sudamérica","Latinoamérica","Asunción","6375830","406750.0","Developing"
"604","PE","PER",TRUE,"PE","PER","604","","3932488","SA","019","005","419","PEN","TRUE","","","Peru","South America","Americas","South America","Latin America","Lima","Perú","Sudamérica","América","Sudamérica","Latinoamérica","Lima","29907003","1285220.0","Developing"
"608","PH","PHL",TRUE,"RP","PHL","608","","1694008","AS","142","","035","PHP","TRUE","","","Philippines","Asia","Asia","","Southeast Asia","Manila","Filipinas","Asia","Asia","","Sudeste asiático","Manila","99900177","300000.0","Developing"
"612","PN","PCN",TRUE,"PC","PCN","612","","4030699","OC","009","","061","NZD","FALSE","Territory of GB","GBR","Pitcairn Islands","Oceania","Oceania","","Polynesia","Adamstown","Islas Pitcairn","Oceanía","Oceanía","","Polinesia","Adamstown","46","47.0","Developing"
"616","PL","POL",TRUE,"PL","POL","616","PL","798544","EU","150","","151","PLN","TRUE","","","Poland","Europe","Europe","","Eastern Europe","Warsaw","Polonia","Europa","Europa","","Europa oriental","Varsovia","38500000","312685.0","Developed"
"620","PT","PRT",TRUE,"PO","PRT","620","PT","2264397","EU","150","","039","EUR","TRUE","","","Portugal","Europe","Europe","","Southern Europe","Lisbon","Portugal","Europa","Europa","","Europa meridional","Lisboa","10676000","92391.0","Developed"
"630","PR","PRI",TRUE,"RQ","PRI","630","","4566966","NA","019","029","419","USD","FALSE","Commonwealth of US","USA","Puerto Rico","North America","Americas","Caribbean","Latin America","San Juan","Puerto Rico","Norteamérica","América","Caribe","Latinoamérica","San Juan","3916632","9104.0","Developing"
"634","QA","QAT",TRUE,"QA","QAT","634","","289688","AS","142","","145","QAR","TRUE","","","Qatar","Asia","Asia","","Western Asia","Doha","Catar","Asia","Asia","","Asia occidental","Doha","840926","11437.0","Developing"
"638","RE","REU",TRUE,"RE","REU","638","","935317","AF","002","014","202","EUR","FALSE","Part of FR","FRA","Réunion","Africa","Africa","Eastern Africa","Sub-Saharan Africa","Saint-Denis","Reunión","África","África","África oriental","África subsahariana","Saint-Denis","776948","2517.0","Developing"
"642","RO","ROU",TRUE,"RO","ROU","642","RO","798549","EU","150","","151","RON","TRUE","","","Romania","Europe","Europe","","Eastern Europe","Bucharest","Rumanía","Europa","Europa","","Europa oriental","Bucarest","21959278","237500.0","Developed"
"643","RU","RUS",TRUE,"RS","RUS","643","","2017370","EU","150","","151","RUB","TRUE","","","Russia","Europe","Europe","","Eastern Europe","Moscow","Rusia","Europa","Europa","","Europa oriental","Moscú","140702000","1.71E7","Developed"
"646","RW","RWA",TRUE,"RW","RWA","646","","49518","AF","002","014","202","RWF","TRUE","","","Rwanda","Africa","Africa","Eastern Africa","Sub-Saharan Africa","Kigali","Ruanda","África","África","África oriental","África subsahariana","Kigali","11055976","26338.0","Developing"
"652","BL","BLM",TRUE,"TB","","652","","3578476","NA","019","029","419","EUR","FALSE","Part of FR","FRA","St. Barthélemy","North America","Americas","Caribbean","Latin America","Gustavia","San Bartolomé","Norteamérica","América","Caribe","Latinoamérica","Gustavia","8450","21.0","Developing"
"654","SH","SHN",TRUE,"SH","SHN","654","","3370751","AF","002","011","202","SHP","FALSE","Territory of GB","GBR","St. Helena","Africa","Africa","Western Africa","Sub-Saharan Africa","Jamestown","Santa Elena","África","África","África occidental","África subsahariana","Jamestown","7460","410.0","Developing"
"659","KN","KNA",TRUE,"SC","KNA","659","","3575174","NA","019","029","419","XCD","TRUE","","","St. Kitts & Nevis","North America","Americas","Caribbean","Latin America","Basseterre","San Cristóbal y Nieves","Norteamérica","América","Caribe","Latinoamérica","Basseterre","51134","261.0","Developing"
"662","LC","LCA",TRUE,"ST","LCA","662","","3576468","NA","019","029","419","XCD","TRUE","","","St. Lucia","North America","Americas","Caribbean","Latin America","Castries","Santa Lucía","Norteamérica","América","Caribe","Latinoamérica","Castries","160922","616.0","Developing"
"663","MF","MAF",TRUE,"RN","","663","","3578421","NA","019","029","419","EUR","FALSE","Part of FR","FRA","St. Martin","North America","Americas","Caribbean","Latin America","Marigot","San Martín","Norteamérica","América","Caribe","Latinoamérica","Marigot","35925","53.0","Developing"
"666","PM","SPM",TRUE,"SB","SPM","666","","3424932","NA","019","","021","EUR","FALSE","Part of FR","FRA","St. Pierre & Miquelon","North America","Americas","","Northern America","Saint-Pierre","San Pedro y Miquelón","Norteamérica","América","","Norteamérica","Saint-Pierre","7012","242.0","Developed"
"670","VC","VCT",TRUE,"VC","VCT","670","","3577815","NA","019","029","419","XCD","TRUE","","","St. Vincent & Grenadines","North America","Americas","Caribbean","Latin America","Kingstown","San Vicente y las Granadinas","Norteamérica","América","Caribe","Latinoamérica","Kingstown","104217","389.0","Developing"
"882","WS","WSM",TRUE,"WS","WSM","882","","4034894","OC","009","","061","WST","TRUE","","","Samoa","Oceania","Oceania","","Polynesia","Apia","Samoa","Oceanía","Oceanía","","Polinesia","Apia","192001","2944.0","Developing"
"674","SM","SMR",TRUE,"SM","SMR","674","","3168068","EU","150","","039","EUR","TRUE","","","San Marino","Europe","Europe","","Southern Europe","San Marino","San Marino","Europa","Europa","","Europa meridional","San Marino","31477","61.2","Developed"
"678","ST","STP",TRUE,"TP","STP","678","","2410758","AF","002","017","202","STD","TRUE","","","São Tomé & Príncipe","Africa","Africa","Middle Africa","Sub-Saharan Africa","São Tomé","Santo Tomé y Príncipe","África","África","África central","África subsahariana","Santo Tomé","197700","1001.0","Developing"
"682","SA","SAU",TRUE,"SA","SAU","682","","102358","AS","142","","145","SAR","TRUE","","","Saudi Arabia","Asia","Asia","","Western Asia","Riyadh","Arabia Saudí","Asia","Asia","","Asia occidental","Riad","25731776","1960582.0","Developing"
"686","SN","SEN",TRUE,"SG","SEN","686","","2245662","AF","002","011","202","XOF","TRUE","","","Senegal","Africa","Africa","Western Africa","Sub-Saharan Africa","Dakar","Senegal","África","África","África occidental","África subsahariana","Dakar","12323252","196190.0","Developing"
"688","RS","SRB",TRUE,"RI","","688","RS","6290252","EU","150","","039","RSD","TRUE","","","Serbia","Europe","Europe","","Southern Europe","Belgrade","Serbia","Europa","Europa","","Europa meridional","Belgrado","7344847","88361.0","Developed"
"690","SC","SYC",TRUE,"SE","SYC","690","","241170","AF","002","014","202","SCR","TRUE","","","Seychelles","Africa","Africa","Eastern Africa","Sub-Saharan Africa","Victoria","Seychelles","África","África","África oriental","África subsahariana","Victoria","88340","455.0","Developing"
"694","SL","SLE",TRUE,"SL","SLE","694","","2403846","AF","002","011","202","SLL","TRUE","","","Sierra Leone","Africa","Africa","Western Africa","Sub-Saharan Africa","Freetown","Sierra Leona","África","África","África occidental","África subsahariana","Freetown","5245695","71740.0","Developing"
"702","SG","SGP",TRUE,"SN","SGP","702","","1880251","AS","142","","035","SGD","TRUE","","","Singapore","Asia","Asia","","Southeast Asia","Singapore","Singapur","Asia","Asia","","Sudeste asiático","Singapur","4701069","692.7","Developing"
"534","SX","SXM",TRUE,"NN","","534","","7609695","NA","019","029","419","ANG","FALSE","Part of NL","NLD","Sint Maarten","North America","Americas","Caribbean","Latin America","Philipsburg","Sint Maarten","Norteamérica","América","Caribe","Latinoamérica","Philipsburg","37429","21.0","Developing"
"703","SK","SVK",TRUE,"LO","SVK","703","SK","3057568","EU","150","","151","EUR","TRUE","","","Slovakia","Europe","Europe","","Eastern Europe","Bratislava","Eslovaquia","Europa","Europa","","Europa oriental","Bratislava","5455000","48845.0","Developed"
"705","SI","SVN",TRUE,"SI","SVN","705","SI","3190538","EU","150","","039","EUR","TRUE","","","Slovenia","Europe","Europe","","Southern Europe","Ljubljana","Eslovenia","Europa","Europa","","Europa meridional","Liubliana","2007000","20273.0","Developed"
"90","SB","SLB",TRUE,"BP","SLB","090","","2103350","OC","009","","054","SBD","TRUE","","","Solomon Islands","Oceania","Oceania","","Melanesia","Honiara","Islas Salomón","Oceanía","Oceanía","","Melanesia","Honiara","559198","28450.0","Developing"
"706","SO","SOM",TRUE,"SO","SOM","706","","51537","AF","002","014","202","SOS","TRUE","","","Somalia","Africa","Africa","Eastern Africa","Sub-Saharan Africa","Mogadishu","Somalia","África","África","África oriental","África subsahariana","Mogadiscio","10112453","637657.0","Developing"
"710","ZA","ZAF",TRUE,"SF","ZAF","710","","953987","AF","002","018","202","ZAR","TRUE","","","South Africa","Africa","Africa","Southern Africa","Sub-Saharan Africa","Pretoria","Sudáfrica","África","África","África meridional","África subsahariana","Pretoria","49000000","1219912.0","Developing"
"239","GS","SGS",TRUE,"SX","SGS","239","","3474415","AN","019","005","419","GBP","FALSE","Territory of GB","GBR","South Georgia & South Sandwich Islands","Antarctica","Americas","South America","Latin America","Grytviken","Islas Georgia del Sur y Sandwich del Sur","Antártida","América","Sudamérica","Latinoamérica","Grytviken","30","3903.0","Developing"
"728","SS","SSD",TRUE,"OD","","728","","7909807","AF","002","014","202","SSP","TRUE","","","South Sudan","Africa","Africa","Eastern Africa","Sub-Saharan Africa","Juba","Sudán del Sur","África","África","África oriental","África subsahariana","Juba","8260490","644329.0","Developing"
"724","ES","ESP",TRUE,"SP","ESP","724","ES","2510769","EU","150","","039","EUR","TRUE","","","Spain","Europe","Europe","","Southern Europe","Madrid","España","Europa","Europa","","Europa meridional","Madrid","46505963","504782.0","Developed"
"144","LK","LKA",TRUE,"CE","LKA","144","","1227603","AS","142","","034","LKR","TRUE","","","Sri Lanka","Asia","Asia","","Southern Asia","Colombo","Sri Lanka","Asia","Asia","","Asia meridional","Colombo","21513990","65610.0","Developing"
"729","SD","SDN",TRUE,"SU","SDN","729","","366755","AF","002","","015","SDG","TRUE","","","Sudan","Africa","Africa","","Northern Africa","Khartoum","Sudán","África","África","","África septentrional","Jartum","35000000","1861484.0","Developing"
"740","SR","SUR",TRUE,"NS","SUR","740","","3382998","SA","019","005","419","SRD","TRUE","","","Suriname","South America","Americas","South America","Latin America","Paramaribo","Surinam","Sudamérica","América","Sudamérica","Latinoamérica","Paramaribo","492829","163270.0","Developing"
"744","SJ","SJM",TRUE,"SV","SJM","744","","607072","EU","150","","154","NOK","FALSE","Territory of NO","NOR","Svalbard & Jan Mayen","Europe","Europe","","Northern Europe","Longyearbyen","Svalbard y Jan Mayen","Europa","Europa","","Europa septentrional","Longyearbyen","2550","62049.0","Developed"
"752","SE","SWE",TRUE,"SW","SWE","752","SE","2661886","EU","150","","154","SEK","TRUE","","","Sweden","Europe","Europe","","Northern Europe","Stockholm","Suecia","Europa","Europa","","Europa septentrional","Estocolmo","9828655","449964.0","Developed"
"756","CH","CHE",TRUE,"SZ","CHE","756","CH","2658434","EU","150","","155","CHF","TRUE","","","Switzerland","Europe","Europe","","Western Europe","Bern","Suiza","Europa","Europa","","Europa occidental","Berna","8484100","41290.0","Developed"
"760","SY","SYR",TRUE,"SY","SYR","760","","163843","AS","142","","145","SYP","TRUE","","","Syria","Asia","Asia","","Western Asia","Damascus","Siria","Asia","Asia","","Asia occidental","Damasco","22198110","185180.0","Developing"
"158","TW","TWN",TRUE,"TW","TWN","","","1668284","AS","","","","TWD","FALSE","Yes","","Taiwan","Asia","","","","Taipei","Taiwán","Asia","","","","Taipéi","22894384","35980.0",""
"762","TJ","TJK",TRUE,"TI","TJK","762","","1220409","AS","142","","143","TJS","TRUE","","","Tajikistan","Asia","Asia","","Central Asia","Dushanbe","Tayikistán","Asia","Asia","","Asia central","Dushanbe","7487489","143100.0","Developing"
"834","TZ","TZA",TRUE,"TZ","TZA","834","","149590","AF","002","014","202","TZS","TRUE","","","Tanzania","Africa","Africa","Eastern Africa","Sub-Saharan Africa","Dodoma","Tanzania","África","África","África oriental","África subsahariana","Dodoma","41892895","945087.0","Developing"
"764","TH","THA",TRUE,"TH","THA","764","","1605651","AS","142","","035","THB","TRUE","","","Thailand","Asia","Asia","","Southeast Asia","Bangkok","Tailandia","Asia","Asia","","Sudeste asiático","Bangkok","67089500","514000.0","Developing"
"626","TL","TLS",TRUE,"TT","TLS","626","","1966436","OC","142","","035","USD","TRUE","","","Timor-Leste","Oceania","Asia","","Southeast Asia","Dili","Timor-Leste","Oceanía","Asia","","Sudeste asiático","Dili","1154625","15007.0","Developing"
"768","TG","TGO",TRUE,"TO","TGO","768","","2363686","AF","002","011","202","XOF","TRUE","","","Togo","Africa","Africa","Western Africa","Sub-Saharan Africa","Lomé","Togo","África","África","África occidental","África subsahariana","Lomé","6587239","56785.0","Developing"
"772","TK","TKL",TRUE,"TL","TKL","772","","4031074","OC","009","","061","NZD","FALSE","Territory of NZ","NZL","Tokelau","Oceania","Oceania","","Polynesia","","Tokelau","Oceanía","Oceanía","","Polinesia","","1466","10.0","Developing"
"776","TO","TON",TRUE,"TN","TON","776","","4032283","OC","009","","061","TOP","TRUE","","","Tonga","Oceania","Oceania","","Polynesia","Nuku'alofa","Tonga","Oceanía","Oceanía","","Polinesia","Nuku'alofa","122580","748.0","Developing"
"780","TT","TTO",TRUE,"TD","TTO","780","","3573591","NA","019","029","419","TTD","TRUE","","","Trinidad & Tobago","North America","Americas","Caribbean","Latin America","Port of Spain","Trinidad y Tobago","Norteamérica","América","Caribe","Latinoamérica","Puerto España","1328019","5128.0","Developing"
"788","TN","TUN",TRUE,"TS","TUN","788","","2464461","AF","002","","015","TND","TRUE","","","Tunisia","Africa","Africa","","Northern Africa","Tunis","Túnez","África","África","","África septentrional","Túnez","10589025","163610.0","Developing"
"792","TR","TUR",TRUE,"TU","TUR","792","TR","298795","AS","142","","145","TRY","TRUE","","","Turkey","Asia","Asia","","Western Asia","Ankara","Turquía","Asia","Asia","","Asia occidental","Ankara","77804122","780580.0","Developing"
"795","TM","TKM",TRUE,"TX","TKM","795","","1218197","AS","142","","143","TMT","TRUE","","","Turkmenistan","Asia","Asia","","Central Asia","Ashgabat","Turkmenistán","Asia","Asia","","Asia central","Asjabad","4940916","488100.0","Developing"
"796","TC","TCA",TRUE,"TK","TCA","796","","3576916","NA","019","029","419","USD","FALSE","Territory of GB","GBR","Turks & Caicos Islands","North America","Americas","Caribbean","Latin America","Cockburn Town","Islas Turcas y Caicos","Norteamérica","América","Caribe","Latinoamérica","Cockburn Town","20556","430.0","Developing"
"798","TV","TUV",TRUE,"TV","TUV","798","","2110297","OC","009","","061","AUD","TRUE","","","Tuvalu","Oceania","Oceania","","Polynesia","Funafuti","Tuvalu","Oceanía","Oceanía","","Polinesia","Fongafale (atolón de Funafuti)","10472","26.0","Developing"
"800","UG","UGA",TRUE,"UG","UGA","800","","226074","AF","002","014","202","UGX","TRUE","","","Uganda","Africa","Africa","Eastern Africa","Sub-Saharan Africa","Kampala","Uganda","África","África","África oriental","África subsahariana","Kampala","33398682","236040.0","Developing"
"804","UA","UKR",TRUE,"UP","UKR","804","","690791","EU","150","","151","UAH","TRUE","","","Ukraine","Europe","Europe","","Eastern Europe","Kyiv","Ucrania","Europa","Europa","","Europa oriental","Kiev","45415596","603700.0","Developed"
"784","AE","ARE",TRUE,"AE","ARE","784","","290557","AS","142","","145","AED","TRUE","","","United Arab Emirates","Asia","Asia","","Western Asia","Abu Dhabi","Emiratos Árabes Unidos","Asia","Asia","","Asia occidental","Abu Dabi","4975593","82880.0","Developing"
"826","GB","GBR",TRUE,"UK","GBR","826","UK","2635167","EU","150","","154","GBP","TRUE","","","United Kingdom","Europe","Europe","","Northern Europe","London","Reino Unido","Europa","Europa","","Europa septentrional","Londres","62348447","244820.0","Developed"
"840","US","USA",TRUE,"US","USA","840","","6252001","NA","019","","021","USD","TRUE","","","United States","North America","Americas","","Northern America","Washington","Estados Unidos","Norteamérica","América","","Norteamérica","Washington","310232863","9629091.0","Developed"
"581","UM","UMI",TRUE,"","","581","","5854968","OC","009","","057","USD","FALSE","Territories of US","USA","U.S. Outlying Islands","Oceania","Oceania","","Micronesian Region","","Islas menores alejadas de EE. UU.","Oceanía","Oceanía","","Región de Micronesia","","0","0.0","Developing"
"858","UY","URY",TRUE,"UY","URY","858","","3439705","SA","019","005","419","UYU","TRUE","","","Uruguay","South America","Americas","South America","Latin America","Montevideo","Uruguay","Sudamérica","América","Sudamérica","Latinoamérica","Montevideo","3477000","176220.0","Developing"
"860","UZ","UZB",TRUE,"UZ","UZB","860","","1512440","AS","142","","143","UZS","TRUE","","","Uzbekistan","Asia","Asia","","Central Asia","Tashkent","Uzbekistán","Asia","Asia","","Asia central","Taskent","27865738","447400.0","Developing"
"548","VU","VUT",TRUE,"NH","VUT","548","","2134431","OC","009","","054","VUV","TRUE","","","Vanuatu","Oceania","Oceania","","Melanesia","Port Vila","Vanuatu","Oceanía","Oceanía","","Melanesia","Port Vila","221552","12200.0","Developing"
"862","VE","VEN",TRUE,"VE","VEN","862","","3625428","SA","019","005","419","VES","TRUE","","","Venezuela","South America","Americas","South America","Latin America","Caracas","Venezuela","Sudamérica","América","Sudamérica","Latinoamérica","Caracas","27223228","912050.0","Developing"
"704","VN","VNM",TRUE,"VM","VNM","704","","1562822","AS","142","","035","VND","TRUE","","","Vietnam","Asia","Asia","","Southeast Asia","Hanoi","Vietnam","Asia","Asia","","Sudeste asiático","Hanói","89571130","329560.0","Developing"
"92","VG","VGB",TRUE,"VI","VGB","092","","3577718","NA","019","029","419","USD","FALSE","Territory of GB","GBR","British Virgin Islands","North America","Americas","Caribbean","Latin America","Road Town","Islas Vírgenes Británicas","Norteamérica","América","Caribe","Latinoamérica","Road Town","21730","153.0","Developing"
"850","VI","VIR",TRUE,"VQ","VIR","850","","4796775","NA","019","029","419","USD","FALSE","Territory of US","USA","U.S. Virgin Islands","North America","Americas","Caribbean","Latin America","Charlotte Amalie","Islas Vírgenes de EE. UU.","Norteamérica","América","Caribe","Latinoamérica","Carlota Amalia","108708","352.0","Developing"
"876","WF","WLF",TRUE,"WF","WLF","876","","4034749","OC","009","","061","XPF","FALSE","Territory of FR","FRA","Wallis & Futuna","Oceania","Oceania","","Polynesia","Mata-Utu","Wallis y Futuna","Oceanía","Oceanía","","Polinesia","Mata-Utu","16025","274.0","Developing"
"732","EH","ESH",TRUE,"WI","ESH","732","","2461445","AF","002","","015","MAD","FALSE","In contention","","Western Sahara","Africa","Africa","","Northern Africa","","Sáhara Occidental","África","África","","África septentrional","","273008","266000.0","Developing"
"887","YE","YEM",TRUE,"YM","YEM","887","","69543","AS","142","","145","YER","TRUE","","","Yemen","Asia","Asia","","Western Asia","Sanaa","Yemen","Asia","Asia","","Asia occidental","Saná","23495361","527970.0","Developing"
"894","ZM","ZMB",TRUE,"ZA","ZMB","894","","895949","AF","002","014","202","ZMW","TRUE","","","Zambia","Africa","Africa","Eastern Africa","Sub-Saharan Africa","Lusaka","Zambia","África","África","África oriental","África subsahariana","Lusaka","13460305","752614.0","Developing"
"716","ZW","ZWE",TRUE,"ZI","ZWE","716","","878675","AF","002","014","202","ZWL","TRUE","","","Zimbabwe","Africa","Africa","Eastern Africa","Sub-Saharan Africa","Harare","Zimbabue","África","África","África oriental","África subsahariana","Harare","13061000","390580.0","Developing"
"","","",FALSE,"","","680","","","","150","830","154","","","","","Sark","","Europe","Channel Islands","Northern Europe","","Sark","","Europa","","Europa septentrional","","","","Developed"
"","XK","XKX",FALSE,"KV","","","","831053","EU","","","","EUR","","","","Kosovo","Europe","","","","Pristina","Kosovo","Europa","","","","Priština","1800000","10908.0",""
"","","",FALSE,"NT","ANT","","","","","","","","","","","","Netherlands Antilles","","","","","","Netherlands Antilles","","","","","","","",""
"","","",FALSE,"AX","","","","","","","","","","","","","Akrotiri","","","","","","Akrotiri","","","","","","","",""
"","","",FALSE,"AT","AUS","","","","","","","","","","","","Ashmore and Cartier Islands","","","","","","Ashmore and Cartier Islands","","","","","","","",""
"","","",FALSE,"FQ","UMI","","","","","","","","","","","","Baker Island","","","","","","Baker Island","","","","","","","",""
"","","",FALSE,"BS","","","","","","","","","","","","","Bassas da India","","","","","","Bassas da India","","","","","","","",""
"","","",FALSE,"IP","FYP","","","","","","","","","","","","Clipperton Island","","","","","","Clipperton Island","","","","","","","",""
"","","",FALSE,"CR","AUS","","","","","","","","","","","","Coral Sea Islands","","","","","","Coral Sea Islands","","","","","","","",""
"","","",FALSE,"DX","","","","","","","","","","","","","Dhekelia","","","","","","Dhekelia","","","","","","","",""
"","","",FALSE,"EU","","","","","","","","","","","","","Europa Island","","","","","","Europa Island","","","","","","","",""
"","","",FALSE,"GZ","","","","","","","","","","","","","Gaza Strip","","","","","","Gaza Strip","","","","","","","",""
"","","",FALSE,"GO","","","","","","","","","","","","","Glorioso Islands","","","","","","Glorioso Islands","","","","","","","",""
"","","",FALSE,"HQ","UMI","","","","","","","","","","","","Howland Island","","","","","","Howland Island","","","","","","","",""
"","","",FALSE,"JN","SJM","","","","","","","","","","","","Jan Mayen","","","","","","Jan Mayen","","","","","","","",""
"","","",FALSE,"DQ","UMI","","","","","","","","","","","","Jarvis Island","","","","","","Jarvis Island","","","","","","","",""
"","","",FALSE,"JQ","UMI","","","","","","","","","","","","Johnston Atoll","","","","","","Johnston Atoll","","","","","","","",""
"","","",FALSE,"JU","","","","","","","","","","","","","Juan de Nova Island","","","","","","Juan de Nova Island","","","","","","","",""
"","","",FALSE,"KQ","UMI","","","","","","","","","","","","Kingman Reef","","","","","","Kingman Reef","","","","","","","",""
"","","",FALSE,"MQ","UMI","","","","","","","","","","","","Midway Islands","","","","","","Midway Islands","","","","","","","",""
"","","",FALSE,"BQ","UMI","","","","","","","","","","","","Navassa Island","","","","","","Navassa Island","","","","","","","",""
"","","",FALSE,"LQ","UMI","","","","","","","","","","","","Palmyra Atoll","","","","","","Palmyra Atoll","","","","","","","",""
"","","",FALSE,"PF","","","","","","","","","","","","","Paracel Islands","","","","","","Paracel Islands","","","","","","","",""
"","","",FALSE,"PG","","","","","","","","","","","","","Spratly Islands","","","","","","Spratly Islands","","","","","","","",""
"","","",FALSE,"TE","","","","","","","","","","","","","Tromelin Island","","","","","","Tromelin Island","","","","","","","",""
"","","",FALSE,"WQ","UMI","","","","","","","","","","","","Wake Island","","","","","","Wake Island","","","","","","","",""
